STARLINK-32043          
1 60135U 24120A   25279.39317529  .00005428  00000+0  19536-3 0  9993
2 60135  53.1600 316.5462 0001333  77.3602 282.7548 15.30180559 72758
STARLINK-32112          
1 60136U 24120B   25279.42482788 -.00000382  00000+0 -76848-6 0  9996
2 60136  53.1606 316.7491 0001245  96.0430 264.0713 15.30190574 72832
STARLINK-32050          
1 60137U 24120C   25279.43116198  .00011956  00000+0  41515-3 0  9994
2 60137  53.1599 316.7897 0001436  80.5657 279.5506 15.30199661 72753
STARLINK-32025          
1 60138U 24120D   25279.37628546  .00010067  00000+0  35158-3 0  9991
2 60138  53.1588 316.4414 0001230 103.8145 256.2993 15.30197162 72753
STARLINK-31867          
1 60139U 24120E   25279.41713243  .00020779  00000+0  69567-3 0  9998
2 60139  53.1588 316.7107 0001768  80.2047 279.9153 15.30940136 72758
STARLINK-31694          
1 60140U 24120F   25279.42271500  .00000043  00000+0  13588-4 0  9991
2 60140  53.1603 316.7335 0001061  92.0671 268.0452 15.30191947 72839
STARLINK-32036          
1 60141U 24120G   25279.42166312  .00001314  00000+0  56496-4 0  9993
2 60141  53.1603 316.7281 0001260  94.7929 265.3216 15.30183803 72836
STARLINK-32031          
1 60142U 24120H   25279.41527860  .00002815  00000+0  10696-3 0  9990
2 60142  53.1596 316.6869 0001071  87.6366 272.4757 15.30254088 72838
STARLINK-32027          
1 60143U 24120J   25279.37205650 -.00000334  00000+0  86156-6 0  9998
2 60143  53.1596 316.3764 0001163  68.8316 291.2809 15.30189665 72833
STARLINK-32033          
1 60144U 24120K   25279.41159286  .00023375  00000+0  79059-3 0  9997
2 60144  53.1585 316.6646 0001447  91.3466 268.7701 15.30536753 72751
STARLINK-32029          
1 60145U 24120L   25279.40582442  .00031261  00000+0  10620-2 0  9992
2 60145  53.1583 316.6281 0001300  92.4038 267.7111 15.30236464 72750
STARLINK-32127          
1 60146U 24120M   25279.36995449  .00003815  00000+0  14091-3 0  9994
2 60146  53.1597 316.4066 0001496  71.5790 288.5374 15.30193221 72759
STARLINK-32019          
1 60147U 24120N   25279.37945258  .00001022  00000+0  46640-4 0  9993
2 60147  53.1599 316.4585 0001369  75.3094 284.8058 15.30187511 72759
STARLINK-32021          
1 60148U 24120P   25279.51649737  .00000303  00000+0  22360-4 0  9997
2 60148  53.1605 305.9451 0001285  88.4848 271.6300 15.30192925 72997
STARLINK-32022          
1 60149U 24120Q   25279.39633419  .00001902  00000+0  76323-4 0  9998
2 60149  53.1604 316.5646 0001106  86.2280 273.8847 15.30195597 72830
STARLINK-32014          
1 60150U 24120R   25279.51746185  .00000861  00000+0  41188-4 0  9993
2 60150  53.1600 315.8976 0001152  81.5595 278.5536 15.30198544 72779
STARLINK-32004          
1 60151U 24120S   25279.39000179 -.00000139  00000+0  74224-5 0  9993
2 60151  53.1605 316.5260 0001241  86.0581 274.0562 15.30196952 72831
