[{"OBJECT_NAME":"STARLINK-32043","OBJECT_ID":"2024-120A","EPOCH":"2025-10-06T09:26:10.345056","MEAN_MOTION":15.30180559,"ECCENTRICITY":0.0001333,"INCLINATION":53.16,"RA_OF_ASC_NODE":316.5462,"ARG_OF_PERICENTER":77.3602,"MEAN_ANOMALY":282.7548,"EPHEMERIS_TYPE":0,"CLASSIFICATION_TYPE":"U","NORAD_CAT_ID":60135,"ELEMENT_SET_NO":999,"REV_AT_EPOCH":7275,"BSTAR":0.00019536,"MEAN_MOTION_DOT":5.428e-5,"MEAN_MOTION_DDOT":0},{"OBJECT_NAME":"STARLINK-32112","OBJECT_ID":"2024-120B","EPOCH":"2025-10-06T10:11:45.128832","MEAN_MOTION":15.30190574,"ECCENTRICITY":0.0001245,"INCLINATION":53.1606,"RA_OF_ASC_NODE":316.7491,"ARG_OF_PERICENTER":96.043,"MEAN_ANOMALY":264.0713,"EPHEMERIS_TYPE":0,"CLASSIFICATION_TYPE":"U","NORAD_CAT_ID":60136,"ELEMENT_SET_NO":999,"REV_AT_EPOCH":7283,"BSTAR":-7.6848e-7,"MEAN_MOTION_DOT":-3.82e-6,"MEAN_MOTION_DDOT":0},{"OBJECT_NAME":"STARLINK-32050","OBJECT_ID":"2024-120C","EPOCH":"2025-10-06T10:20:52.395072","MEAN_MOTION":15.30199661,"ECCENTRICITY":0.0001436,"INCLINATION":53.1599,"RA_OF_ASC_NODE":316.7897,"ARG_OF_PERICENTER":80.5657,"MEAN_ANOMALY":279.5506,"EPHEMERIS_TYPE":0,"CLASSIFICATION_TYPE":"U","NORAD_CAT_ID":60137,"ELEMENT_SET_NO":999,"REV_AT_EPOCH":7275,"BSTAR":0.00041515,"MEAN_MOTION_DOT":0.00011956,"MEAN_MOTION_DDOT":0},{"OBJECT_NAME":"STARLINK-32025","OBJECT_ID":"2024-120D","EPOCH":"2025-10-06T09:01:51.063744","MEAN_MOTION":15.30197162,"ECCENTRICITY":0.000123,"INCLINATION":53.1588,"RA_OF_ASC_NODE":316.4414,"ARG_OF_PERICENTER":103.8145,"MEAN_ANOMALY":256.2993,"EPHEMERIS_TYPE":0,"CLASSIFICATION_TYPE":"U","NORAD_CAT_ID":60138,"ELEMENT_SET_NO":999,"REV_AT_EPOCH":7275,"BSTAR":0.00035158,"MEAN_MOTION_DOT":0.00010067,"MEAN_MOTION_DDOT":0},{"OBJECT_NAME":"STARLINK-31867","OBJECT_ID":"2024-120E","EPOCH":"2025-10-06T10:00:40.241952","MEAN_MOTION":15.30940136,"ECCENTRICITY":0.0001768,"INCLINATION":53.1588,"RA_OF_ASC_NODE":316.7107,"ARG_OF_PERICENTER":80.2047,"MEAN_ANOMALY":279.9153,"EPHEMERIS_TYPE":0,"CLASSIFICATION_TYPE":"U","NORAD_CAT_ID":60139,"ELEMENT_SET_NO":999,"REV_AT_EPOCH":7275,"BSTAR":0.00069567,"MEAN_MOTION_DOT":0.00020779,"MEAN_MOTION_DDOT":0},{"OBJECT_NAME":"STARLINK-31694","OBJECT_ID":"2024-120F","EPOCH":"2025-10-06T10:08:42.576000","MEAN_MOTION":15.30191947,"ECCENTRICITY":0.0001061,"INCLINATION":53.1603,"RA_OF_ASC_NODE":316.7335,"ARG_OF_PERICENTER":92.0671,"MEAN_ANOMALY":268.0452,"EPHEMERIS_TYPE":0,"CLASSIFICATION_TYPE":"U","NORAD_CAT_ID":60140,"ELEMENT_SET_NO":999,"REV_AT_EPOCH":7283,"BSTAR":1.3588e-5,"MEAN_MOTION_DOT":4.3e-7,"MEAN_MOTION_DDOT":0},{"OBJECT_NAME":"STARLINK-32036","OBJECT_ID":"2024-120G","EPOCH":"2025-10-06T10:07:11.693568","MEAN_MOTION":15.30183803,"ECCENTRICITY":0.000126,"INCLINATION":53.1603,"RA_OF_ASC_NODE":316.7281,"ARG_OF_PERICENTER":94.7929,"MEAN_ANOMALY":265.3216,"EPHEMERIS_TYPE":0,"CLASSIFICATION_TYPE":"U","NORAD_CAT_ID":60141,"ELEMENT_SET_NO":999,"REV_AT_EPOCH":7283,"BSTAR":5.6496e-5,"MEAN_MOTION_DOT":1.314e-5,"MEAN_MOTION_DDOT":0},{"OBJECT_NAME":"STARLINK-32031","OBJECT_ID":"2024-120H","EPOCH":"2025-10-06T09:58:00.071040","MEAN_MOTION":15.30254088,"ECCENTRICITY":0.0001071,"INCLINATION":53.1596,"RA_OF_ASC_NODE":316.6869,"ARG_OF_PERICENTER":87.6366,"MEAN_ANOMALY":272.4757,"EPHEMERIS_TYPE":0,"CLASSIFICATION_TYPE":"U","NORAD_CAT_ID":60142,"ELEMENT_SET_NO":999,"REV_AT_EPOCH":7283,"BSTAR":0.00010696,"MEAN_MOTION_DOT":2.815e-5,"MEAN_MOTION_DDOT":0},{"OBJECT_NAME":"STARLINK-32027","OBJECT_ID":"2024-120J","EPOCH":"2025-10-06T08:55:45.681600","MEAN_MOTION":15.30189665,"ECCENTRICITY":0.0001163,"INCLINATION":53.1596,"RA_OF_ASC_NODE":316.3764,"ARG_OF_PERICENTER":68.8316,"MEAN_ANOMALY":291.2809,"EPHEMERIS_TYPE":0,"CLASSIFICATION_TYPE":"U","NORAD_CAT_ID":60143,"ELEMENT_SET_NO":999,"REV_AT_EPOCH":7283,"BSTAR":8.6156e-7,"MEAN_MOTION_DOT":-3.34e-6,"MEAN_MOTION_DDOT":0},{"OBJECT_NAME":"STARLINK-32033","OBJECT_ID":"2024-120K","EPOCH":"2025-10-06T09:52:41.623104","MEAN_MOTION":15.30536753,"ECCENTRICITY":0.0001447,"INCLINATION":53.1585,"RA_OF_ASC_NODE":316.6646,"ARG_OF_PERICENTER":91.3466,"MEAN_ANOMALY":268.7701,"EPHEMERIS_TYPE":0,"CLASSIFICATION_TYPE":"U","NORAD_CAT_ID":60144,"ELEMENT_SET_NO":999,"REV_AT_EPOCH":7275,"BSTAR":0.00079059,"MEAN_MOTION_DOT":0.00023375,"MEAN_MOTION_DDOT":0},{"OBJECT_NAME":"STARLINK-32029","OBJECT_ID":"2024-120L","EPOCH":"2025-10-06T09:44:23.229888","MEAN_MOTION":15.30236464,"ECCENTRICITY":0.00013,"INCLINATION":53.1583,"RA_OF_ASC_NODE":316.6281,"ARG_OF_PERICENTER":92.4038,"MEAN_ANOMALY":267.7111,"EPHEMERIS_TYPE":0,"CLASSIFICATION_TYPE":"U","NORAD_CAT_ID":60145,"ELEMENT_SET_NO":999,"REV_AT_EPOCH":7275,"BSTAR":0.001062,"MEAN_MOTION_DOT":0.00031261,"MEAN_MOTION_DDOT":0},{"OBJECT_NAME":"STARLINK-32127","OBJECT_ID":"2024-120M","EPOCH":"2025-10-06T08:52:44.067936","MEAN_MOTION":15.30193221,"ECCENTRICITY":0.0001496,"INCLINATION":53.1597,"RA_OF_ASC_NODE":316.4066,"ARG_OF_PERICENTER":71.579,"MEAN_ANOMALY":288.5374,"EPHEMERIS_TYPE":0,"CLASSIFICATION_TYPE":"U","NORAD_CAT_ID":60146,"ELEMENT_SET_NO":999,"REV_AT_EPOCH":7275,"BSTAR":0.00014091,"MEAN_MOTION_DOT":3.815e-5,"MEAN_MOTION_DDOT":0},{"OBJECT_NAME":"STARLINK-32019","OBJECT_ID":"2024-120N","EPOCH":"2025-10-06T09:06:24.702912","MEAN_MOTION":15.30187511,"ECCENTRICITY":0.0001369,"INCLINATION":53.1599,"RA_OF_ASC_NODE":316.4585,"ARG_OF_PERICENTER":75.3094,"MEAN_ANOMALY":284.8058,"EPHEMERIS_TYPE":0,"CLASSIFICATION_TYPE":"U","NORAD_CAT_ID":60147,"ELEMENT_SET_NO":999,"REV_AT_EPOCH":7275,"BSTAR":4.664e-5,"MEAN_MOTION_DOT":1.022e-5,"MEAN_MOTION_DDOT":0},{"OBJECT_NAME":"STARLINK-32021","OBJECT_ID":"2024-120P","EPOCH":"2025-10-06T12:23:45.372768","MEAN_MOTION":15.30192925,"ECCENTRICITY":0.0001285,"INCLINATION":53.1605,"RA_OF_ASC_NODE":305.9451,"ARG_OF_PERICENTER":88.4848,"MEAN_ANOMALY":271.63,"EPHEMERIS_TYPE":0,"CLASSIFICATION_TYPE":"U","NORAD_CAT_ID":60148,"ELEMENT_SET_NO":999,"REV_AT_EPOCH":7299,"BSTAR":2.236e-5,"MEAN_MOTION_DOT":3.03e-6,"MEAN_MOTION_DDOT":0},{"OBJECT_NAME":"STARLINK-32022","OBJECT_ID":"2024-120Q","EPOCH":"2025-10-06T09:30:43.274016","MEAN_MOTION":15.30195597,"ECCENTRICITY":0.0001106,"INCLINATION":53.1604,"RA_OF_ASC_NODE":316.5646,"ARG_OF_PERICENTER":86.228,"MEAN_ANOMALY":273.8847,"EPHEMERIS_TYPE":0,"CLASSIFICATION_TYPE":"U","NORAD_CAT_ID":60149,"ELEMENT_SET_NO":999,"REV_AT_EPOCH":7283,"BSTAR":7.6323e-5,"MEAN_MOTION_DOT":1.902e-5,"MEAN_MOTION_DDOT":0},{"OBJECT_NAME":"STARLINK-32014","OBJECT_ID":"2024-120R","EPOCH":"2025-10-06T12:25:08.703840","MEAN_MOTION":15.30198544,"ECCENTRICITY":0.0001152,"INCLINATION":53.16,"RA_OF_ASC_NODE":315.8976,"ARG_OF_PERICENTER":81.5595,"MEAN_ANOMALY":278.5536,"EPHEMERIS_TYPE":0,"CLASSIFICATION_TYPE":"U","NORAD_CAT_ID":60150,"ELEMENT_SET_NO":999,"REV_AT_EPOCH":7277,"BSTAR":4.1188e-5,"MEAN_MOTION_DOT":8.61e-6,"MEAN_MOTION_DDOT":0},{"OBJECT_NAME":"STARLINK-32004","OBJECT_ID":"2024-120S","EPOCH":"2025-10-06T09:21:36.154656","MEAN_MOTION":15.30196952,"ECCENTRICITY":0.0001241,"INCLINATION":53.1605,"RA_OF_ASC_NODE":316.526,"ARG_OF_PERICENTER":86.0581,"MEAN_ANOMALY":274.0562,"EPHEMERIS_TYPE":0,"CLASSIFICATION_TYPE":"U","NORAD_CAT_ID":60151,"ELEMENT_SET_NO":999,"REV_AT_EPOCH":7283,"BSTAR":7.4224e-6,"MEAN_MOTION_DOT":-1.39e-6,"MEAN_MOTION_DDOT":0}]
